{
  "norad_id": 42825,
  "name": "KANOPUS-V-IK",
  "history": [
    {
      "epoch": "2026-03-27T09:58:16.818816",
      "apogee_km": 499.23622566065114,
      "perigee_km": 496.8941911884622,
      "latitude_deg": -81.70996183071685,
      "longitude_deg": -153.61464576004073,
      "semi_major_axis_km": 6876.202208424556,
      "eccentricity": 0.0001703,
      "inclination_deg": 97.3631,
      "raan_deg": 353.5945,
      "arg_perigee_deg": 89.3605,
      "mean_anomaly_deg": 270.7826,
      "mean_motion_rev_day": 15.22578885
    }
  ]
}